[
  {
    "OBJECT_NAME": "STARLINK-4768",
    "OBJECT_ID": "22111AK",
    "EPOCH": "2025-11-11T06:48:45.675072",
    "MEAN_MOTION": 15.08835593,
    "ECCENTRICITY": 0.0001725,
    "INCLINATION": 53.2197,
    "RA_OF_ASC_NODE": 60.5077,
    "ARG_OF_PERICENTER": 90.162,
    "MEAN_ANOMALY": 269.957,
    "EPHEMERIS_TYPE": 0,
    "CLASSIFICATION_TYPE": "U",
    "NORAD_CAT_ID": 53806,
    "ELEMENT_SET_NO": 999,
    "REV_AT_EPOCH": 17615,
    "BSTAR": 0.00017186000000000002,
    "MEAN_MOTION_DOT": 2.448e-05,
    "MEAN_MOTION_DDOT": 0.0,
    "TLE_LINE1": "1 53806U 22111AK  25315.28386198  .00002448  00000+0  17186-3 0  9993",
    "TLE_LINE2": "2 53806  53.2197  60.5077 0001725  90.1620 269.9570 15.08835593176154",
    "COMMENT": "Grouped by shell and plane from TLE"
  },
  {
    "OBJECT_NAME": "STARLINK-5368",
    "OBJECT_ID": "22177W",
    "EPOCH": "2025-11-10T14:03:14.798880",
    "MEAN_MOTION": 15.02633552,
    "ECCENTRICITY": 0.0001965,
    "INCLINATION": 43.0046,
    "RA_OF_ASC_NODE": 60.1041,
    "ARG_OF_PERICENTER": 302.5285,
    "MEAN_ANOMALY": 57.5368,
    "EPHEMERIS_TYPE": 0,
    "CLASSIFICATION_TYPE": "U",
    "NORAD_CAT_ID": 54840,
    "ELEMENT_SET_NO": 999,
    "REV_AT_EPOCH": 15904,
    "BSTAR": 0.0,
    "MEAN_MOTION_DOT": -0.00023309,
    "MEAN_MOTION_DDOT": 0.0,
    "TLE_LINE1": "1 54840U 22177W   25314.58558795 -.00023309  00000+0 -17117-2 0  9994",
    "TLE_LINE2": "2 54840  43.0046  60.1041 0001965 302.5285  57.5368 15.02633552159043",
    "COMMENT": "Grouped by shell and plane from TLE"
  },
  {
    "OBJECT_NAME": "STARLINK-6107",
    "OBJECT_ID": "23046AA",
    "EPOCH": "2025-11-11T07:43:57.897696",
    "MEAN_MOTION": 15.02526403,
    "ECCENTRICITY": 0.0001253,
    "INCLINATION": 43.0047,
    "RA_OF_ASC_NODE": 69.3875,
    "ARG_OF_PERICENTER": 271.3139,
    "MEAN_ANOMALY": 88.756,
    "EPHEMERIS_TYPE": 0,
    "CLASSIFICATION_TYPE": "U",
    "NORAD_CAT_ID": 56117,
    "ELEMENT_SET_NO": 999,
    "REV_AT_EPOCH": 14440,
    "BSTAR": 0.00016236999999999998,
    "MEAN_MOTION_DOT": 1.99e-05,
    "MEAN_MOTION_DDOT": 0.0,
    "TLE_LINE1": "1 56117U 23046AA  25315.32219789  .00001990  00000+0  16237-3 0  9992",
    "TLE_LINE2": "2 56117  43.0047  69.3875 0001253 271.3139  88.7560 15.02526403144400",
    "COMMENT": "Grouped by shell and plane from TLE"
  },
  {
    "OBJECT_NAME": "STARLINK-6115",
    "OBJECT_ID": "23046AH",
    "EPOCH": "2025-11-11T07:45:33.940800",
    "MEAN_MOTION": 15.02545082,
    "ECCENTRICITY": 0.0001569,
    "INCLINATION": 43.0057,
    "RA_OF_ASC_NODE": 69.3961,
    "ARG_OF_PERICENTER": 273.62,
    "MEAN_ANOMALY": 86.4463,
    "EPHEMERIS_TYPE": 0,
    "CLASSIFICATION_TYPE": "U",
    "NORAD_CAT_ID": 56123,
    "ELEMENT_SET_NO": 999,
    "REV_AT_EPOCH": 14440,
    "BSTAR": 4.4502e-05,
    "MEAN_MOTION_DOT": 3.98e-06,
    "MEAN_MOTION_DDOT": 0.0,
    "TLE_LINE1": "1 56123U 23046AH  25315.32330950  .00000398  00000+0  44502-4 0  9991",
    "TLE_LINE2": "2 56123  43.0057  69.3961 0001569 273.6200  86.4463 15.02545082144409",
    "COMMENT": "Grouped by shell and plane from TLE"
  },
  {
    "OBJECT_NAME": "STARLINK-6124",
    "OBJECT_ID": "23046AL",
    "EPOCH": "2025-11-11T07:40:45.398496",
    "MEAN_MOTION": 15.02604855,
    "ECCENTRICITY": 0.0001508,
    "INCLINATION": 43.0044,
    "RA_OF_ASC_NODE": 69.3649,
    "ARG_OF_PERICENTER": 283.7711,
    "MEAN_ANOMALY": 76.2964,
    "EPHEMERIS_TYPE": 0,
    "CLASSIFICATION_TYPE": "U",
    "NORAD_CAT_ID": 56126,
    "ELEMENT_SET_NO": 999,
    "REV_AT_EPOCH": 14440,
    "BSTAR": 0.0,
    "MEAN_MOTION_DOT": -0.00017696,
    "MEAN_MOTION_DDOT": 0.0,
    "TLE_LINE1": "1 56126U 23046AL  25315.31996989 -.00017696  00000+0 -12958-2 0  9992",
    "TLE_LINE2": "2 56126  43.0044  69.3649 0001508 283.7711  76.2964 15.02604855144400",
    "COMMENT": "Grouped by shell and plane from TLE"
  },
  {
    "OBJECT_NAME": "STARLINK-6117",
    "OBJECT_ID": "23046AQ",
    "EPOCH": "2025-11-11T07:35:57.638112",
    "MEAN_MOTION": 15.0253674,
    "ECCENTRICITY": 0.0001465,
    "INCLINATION": 43.0033,
    "RA_OF_ASC_NODE": 69.3441,
    "ARG_OF_PERICENTER": 267.9457,
    "MEAN_ANOMALY": 92.1217,
    "EPHEMERIS_TYPE": 0,
    "CLASSIFICATION_TYPE": "U",
    "NORAD_CAT_ID": 56130,
    "ELEMENT_SET_NO": 999,
    "REV_AT_EPOCH": 14440,
    "BSTAR": 0.0,
    "MEAN_MOTION_DOT": -1.872e-05,
    "MEAN_MOTION_DDOT": 0.0,
    "TLE_LINE1": "1 56130U 23046AQ  25315.31663933 -.00001872  00000+0 -12353-3 0  9996",
    "TLE_LINE2": "2 56130  43.0033  69.3441 0001465 267.9457  92.1217 15.02536740144401",
    "COMMENT": "Grouped by shell and plane from TLE"
  },
  {
    "OBJECT_NAME": "STARLINK-6120",
    "OBJECT_ID": "23046AR",
    "EPOCH": "2025-11-11T07:15:11.528064",
    "MEAN_MOTION": 15.02540168,
    "ECCENTRICITY": 0.00011,
    "INCLINATION": 43.0028,
    "RA_OF_ASC_NODE": 69.2291,
    "ARG_OF_PERICENTER": 271.8138,
    "MEAN_ANOMALY": 88.2578,
    "EPHEMERIS_TYPE": 0,
    "CLASSIFICATION_TYPE": "U",
    "NORAD_CAT_ID": 56131,
    "ELEMENT_SET_NO": 999,
    "REV_AT_EPOCH": 14440,
    "BSTAR": 5.5997e-05,
    "MEAN_MOTION_DOT": 5.53e-06,
    "MEAN_MOTION_DDOT": 0.0,
    "TLE_LINE1": "1 56131U 23046AR  25315.30221676  .00000553  00000+0  55997-4 0  9995",
    "TLE_LINE2": "2 56131  43.0028  69.2291 0001100 271.8138  88.2578 15.02540168144409",
    "COMMENT": "Grouped by shell and plane from TLE"
  },
  {
    "OBJECT_NAME": "STARLINK-6071",
    "OBJECT_ID": "23046AS",
    "EPOCH": "2025-11-11T07:31:10.473024",
    "MEAN_MOTION": 15.02538733,
    "ECCENTRICITY": 0.0001508,
    "INCLINATION": 43.0027,
    "RA_OF_ASC_NODE": 69.3146,
    "ARG_OF_PERICENTER": 273.6859,
    "MEAN_ANOMALY": 86.3811,
    "EPHEMERIS_TYPE": 0,
    "CLASSIFICATION_TYPE": "U",
    "NORAD_CAT_ID": 56132,
    "ELEMENT_SET_NO": 999,
    "REV_AT_EPOCH": 14440,
    "BSTAR": 9.6711e-05,
    "MEAN_MOTION_DOT": 1.103e-05,
    "MEAN_MOTION_DDOT": 0.0,
    "TLE_LINE1": "1 56132U 23046AS  25315.31331566  .00001103  00000+0  96711-4 0  9998",
    "TLE_LINE2": "2 56132  43.0027  69.3146 0001508 273.6859  86.3811 15.02538733144405",
    "COMMENT": "Grouped by shell and plane from TLE"
  },
  {
    "OBJECT_NAME": "STARLINK-5566",
    "OBJECT_ID": "23046AT",
    "EPOCH": "2025-11-11T07:00:48.281472",
    "MEAN_MOTION": 15.02541224,
    "ECCENTRICITY": 0.0001381,
    "INCLINATION": 43.0046,
    "RA_OF_ASC_NODE": 69.1528,
    "ARG_OF_PERICENTER": 269.4894,
    "MEAN_ANOMALY": 90.579,
    "EPHEMERIS_TYPE": 0,
    "CLASSIFICATION_TYPE": "U",
    "NORAD_CAT_ID": 56133,
    "ELEMENT_SET_NO": 999,
    "REV_AT_EPOCH": 14440,
    "BSTAR": 0.00011169,
    "MEAN_MOTION_DOT": 1.306e-05,
    "MEAN_MOTION_DDOT": 0.0,
    "TLE_LINE1": "1 56133U 23046AT  25315.29222548  .00001306  00000+0  11169-3 0  9993",
    "TLE_LINE2": "2 56133  43.0046  69.1528 0001381 269.4894  90.5790 15.02541224144402",
    "COMMENT": "Grouped by shell and plane from TLE"
  },
  {
    "OBJECT_NAME": "STARLINK-5564",
    "OBJECT_ID": "23046AU",
    "EPOCH": "2025-11-11T07:26:22.849152",
    "MEAN_MOTION": 15.02538988,
    "ECCENTRICITY": 0.000125,
    "INCLINATION": 43.0034,
    "RA_OF_ASC_NODE": 69.2904,
    "ARG_OF_PERICENTER": 268.8596,
    "MEAN_ANOMALY": 91.2103,
    "EPHEMERIS_TYPE": 0,
    "CLASSIFICATION_TYPE": "U",
    "NORAD_CAT_ID": 56134,
    "ELEMENT_SET_NO": 999,
    "REV_AT_EPOCH": 14440,
    "BSTAR": 5.9075999999999995e-05,
    "MEAN_MOTION_DOT": 5.95e-06,
    "MEAN_MOTION_DDOT": 0.0,
    "TLE_LINE1": "1 56134U 23046AU  25315.30998668  .00000595  00000+0  59076-4 0  9998",
    "TLE_LINE2": "2 56134  43.0034  69.2904 0001250 268.8596  91.2103 15.02538988144405",
    "COMMENT": "Grouped by shell and plane from TLE"
  },
  {
    "OBJECT_NAME": "STARLINK-5489",
    "OBJECT_ID": "23046AW",
    "EPOCH": "2025-11-11T07:20:00.241440",
    "MEAN_MOTION": 15.02543901,
    "ECCENTRICITY": 0.000111,
    "INCLINATION": 43.0053,
    "RA_OF_ASC_NODE": 69.2593,
    "ARG_OF_PERICENTER": 239.9571,
    "MEAN_ANOMALY": 120.1161,
    "EPHEMERIS_TYPE": 0,
    "CLASSIFICATION_TYPE": "U",
    "NORAD_CAT_ID": 56136,
    "ELEMENT_SET_NO": 999,
    "REV_AT_EPOCH": 14440,
    "BSTAR": 0.00016359000000000002,
    "MEAN_MOTION_DOT": 2.007e-05,
    "MEAN_MOTION_DDOT": 0.0,
    "TLE_LINE1": "1 56136U 23046AW  25315.30555835  .00002007  00000+0  16359-3 0  9991",
    "TLE_LINE2": "2 56136  43.0053  69.2593 0001110 239.9571 120.1161 15.02543901144406",
    "COMMENT": "Grouped by shell and plane from TLE"
  },
  {
    "OBJECT_NAME": "STARLINK-4774",
    "OBJECT_ID": "23046AY",
    "EPOCH": "2025-11-11T07:10:23.870496",
    "MEAN_MOTION": 15.02550124,
    "ECCENTRICITY": 0.0001519,
    "INCLINATION": 43.0047,
    "RA_OF_ASC_NODE": 69.209,
    "ARG_OF_PERICENTER": 266.5548,
    "MEAN_ANOMALY": 93.512,
    "EPHEMERIS_TYPE": 0,
    "CLASSIFICATION_TYPE": "U",
    "NORAD_CAT_ID": 56138,
    "ELEMENT_SET_NO": 999,
    "REV_AT_EPOCH": 14440,
    "BSTAR": 0.00013829,
    "MEAN_MOTION_DOT": 1.665e-05,
    "MEAN_MOTION_DDOT": 0.0,
    "TLE_LINE1": "1 56138U 23046AY  25315.29888739  .00001665  00000+0  13829-3 0  9991",
    "TLE_LINE2": "2 56138  43.0047  69.2090 0001519 266.5548  93.5120 15.02550124144409",
    "COMMENT": "Grouped by shell and plane from TLE"
  },
  {
    "OBJECT_NAME": "STARLINK-5375",
    "OBJECT_ID": "23046BA",
    "EPOCH": "2025-11-11T07:07:11.836992",
    "MEAN_MOTION": 15.02542956,
    "ECCENTRICITY": 0.0001289,
    "INCLINATION": 43.0036,
    "RA_OF_ASC_NODE": 69.1905,
    "ARG_OF_PERICENTER": 267.6417,
    "MEAN_ANOMALY": 92.4278,
    "EPHEMERIS_TYPE": 0,
    "CLASSIFICATION_TYPE": "U",
    "NORAD_CAT_ID": 56140,
    "ELEMENT_SET_NO": 999,
    "REV_AT_EPOCH": 14440,
    "BSTAR": 0.00013282,
    "MEAN_MOTION_DOT": 1.591e-05,
    "MEAN_MOTION_DDOT": 0.0,
    "TLE_LINE1": "1 56140U 23046BA  25315.29666478  .00001591  00000+0  13282-3 0  9999",
    "TLE_LINE2": "2 56140  43.0036  69.1905 0001289 267.6417  92.4278 15.02542956144401",
    "COMMENT": "Grouped by shell and plane from TLE"
  }
]